NORAD_CAT_ID,OBJECT_NAME,OBJECT_TYPE,EPOCH,MEAN_MOTION,ECCENTRICITY,INCLINATION,RA_OF_ASC_NODE,ARG_OF_PERICENTER,MEAN_ANOMALY,BSTAR,MEAN_MOTION_DOT,MEAN_MOTION_DDOT,TLE_LINE0,TLE_LINE1,TLE_LINE2,SEMIMAJOR_AXIS,PERIOD,APOGEE,PERIGEE,DECAYED
54781.0,STARLINK-5443,PAYLOAD,2024-02-20 11:18:52,15.08847169,0.0001511,53.2152,148.0234,109.0759,251.0397,0.0012194,0.00019176,0.0,0 STARLINK-5443,1 54781U 22175Z   24051.47144430  .00019176  00000-0  12194-2 0  9994,2 54781  53.2152 148.0234 0001511 109.0759 251.0397 15.08847169 65014,6917.858,95.437,540.769,538.678,0.0
54781.0,STARLINK-5443,PAYLOAD,2024-02-20 12:54:15,15.08847621,0.0001379,53.2149,147.7272,99.21,260.9048,0.0011484,0.0001804,0.0,0 STARLINK-5443,1 54781U 22175Z   24051.53768445  .00018040  00000-0  11484-2 0  9999,2 54781  53.2149 147.7272 0001379  99.2100 260.9048 15.08847621 67185,6917.857,95.437,540.676,538.768,0.0
54781.0,STARLINK-5443,PAYLOAD,2024-02-21 12:45:02,15.08855009,0.0001371,53.2165,143.2662,94.5621,265.5528,0.00057169,8.826e-05,0.0,0 STARLINK-5443,1 54781U 22175Z   24052.53128039  .00008826  00000-0  57169-3 0  9991,2 54781  53.2165 143.2662 0001371  94.5621 265.5528 15.08855009 65175,6917.835,95.437,540.648,538.751,0.0
54781.0,STARLINK-5443,PAYLOAD,2024-02-22 12:35:49,15.08842799,0.0001416,53.2165,138.8058,102.2016,257.9134,9.3733e-05,1.204e-05,0.0,0 STARLINK-5443,1 54781U 22175Z   24053.52488264  .00001204  00000-0  93733-4 0  9991,2 54781  53.2165 138.8058 0001416 102.2016 257.9134 15.08842799 65326,6917.872,95.437,540.716,538.757,0.0
54781.0,STARLINK-5443,PAYLOAD,2024-02-23 12:26:37,15.08837608,0.0001461,53.2166,134.3466,99.036,261.0798,-2.4099e-05,-6.71e-06,0.0,0 STARLINK-5443,1 54781U 22175Z   24054.51848745 -.00000671  00000-0 -24099-4 0  9993,2 54781  53.2166 134.3466 0001461  99.0360 261.0798 15.08837608 65477,6917.888,95.438,540.763,538.742,0.0
54781.0,STARLINK-5443,PAYLOAD,2024-02-23 21:58:56,15.08839746,0.0001453,53.2165,132.5617,96.6972,263.4186,3.1993e-05,2.21e-06,0.0,0 STARLINK-5443,1 54781U 22175Z   24054.91592735  .00000221  00000-0  31993-4 0  9992,2 54781  53.2165 132.5617 0001453  96.6972 263.4186 15.08839746 67695,6917.881,95.438,540.751,538.741,0.0
54781.0,STARLINK-5443,PAYLOAD,2024-02-24 12:17:24,15.08847603,0.0001435,53.2161,129.885,96.3269,263.7886,0.00023509,3.456e-05,0.0,0 STARLINK-5443,1 54781U 22175Z   24055.51208480  .00003456  00000-0  23509-3 0  9996,2 54781  53.2161 129.8850 0001435  96.3269 263.7886 15.08847603 67786,6917.857,95.437,540.715,538.729,0.0
54781.0,STARLINK-5443,PAYLOAD,2024-02-25 13:43:34,15.08852534,0.0001469,53.2157,125.1266,89.7899,270.3261,0.00026775,3.977e-05,0.0,0 STARLINK-5443,1 54781U 22175Z   24056.57192205  .00003977  00000-0  26775-3 0  9996,2 54781  53.2157 125.1266 0001469  89.7899 270.3261 15.08852534 67941,6917.842,95.437,540.723,538.691,0.0
54781.0,STARLINK-5443,PAYLOAD,2024-02-25 21:40:30,15.08840356,0.0001667,53.2168,123.6399,79.8177,280.3003,3.9185e-05,3.36e-06,0.0,0 STARLINK-5443,1 54781U 22175Z   24056.90312708  .00000336  00000-0  39185-4 0  9991,2 54781  53.2168 123.6399 0001667  79.8177 280.3003 15.08840356 67991,6917.879,95.438,540.898,538.591,0.0
54781.0,STARLINK-5443,PAYLOAD,2024-02-26 04:02:03,15.08837371,0.0001889,53.2158,122.4513,79.7956,280.3249,-2.8606e-06,-3.34e-06,0.0,0 STARLINK-5443,1 54781U 22175Z   24057.16809303 -.00000334  00000-0 -28606-5 0  9999,2 54781  53.2158 122.4513 0001889  79.7956 280.3249 15.08837371 65875,6917.888,95.438,541.06,538.447,0.0
54781.0,STARLINK-5443,PAYLOAD,2024-02-26 10:23:36,15.08831433,0.0002064,53.2173,121.2619,69.5577,290.5636,-0.00010796,-2.006e-05,0.0,0 STARLINK-5443,1 54781U 22175Z   24057.43305701 -.00002006  00000-0 -10796-3 0  9999,2 54781  53.2173 121.2619 0002064  69.5577 290.5636 15.08831433 68079,6917.907,95.438,541.199,538.344,0.0
54781.0,STARLINK-5443,PAYLOAD,2024-02-27 10:14:22,15.08850481,0.00016,53.2161,116.7998,81.2262,278.8911,0.00019558,2.827e-05,0.0,0 STARLINK-5443,1 54781U 22175Z   24058.42664713  .00002827  00000-0  19558-3 0  9994,2 54781  53.2161 116.7998 0001600  81.2262 278.8911 15.08850481 66068,6917.848,95.437,540.82,538.606,0.0
54781.0,STARLINK-5443,PAYLOAD,2024-02-28 03:43:37,15.08841113,0.0001506,53.2142,113.5283,78.3843,281.7318,0.00029365,4.389e-05,0.0,0 STARLINK-5443,1 54781U 22175Z   24059.15529211  .00004389  00000-0  29365-3 0  9990,2 54781  53.2142 113.5283 0001506  78.3843 281.7318 15.08841113 66174,6917.877,95.437,540.784,538.7,0.0
54781.0,STARLINK-5443,PAYLOAD,2024-02-28 10:05:09,15.08844382,0.0001608,53.2156,112.3369,89.214,270.9036,0.00033267,5.011e-05,0.0,0 STARLINK-5443,1 54781U 22175Z   24059.42025092  .00005011  00000-0  33267-3 0  9997,2 54781  53.2156 112.3369 0001608  89.2140 270.9036 15.08844382 68377,6917.867,95.437,540.844,538.62,0.0
54781.0,STARLINK-5443,PAYLOAD,2024-02-29 09:55:56,15.08843021,0.0001649,53.2156,107.8767,90.6483,269.4698,5.9642e-05,6.61e-06,0.0,0 STARLINK-5443,1 54781U 22175Z   24060.41384853  .00000661  00000-0  59642-4 0  9993,2 54781  53.2156 107.8767 0001649  90.6483 269.4698 15.08843021 66362,6917.871,95.437,540.877,538.595,0.0
54781.0,STARLINK-5443,PAYLOAD,2024-02-29 13:06:42,15.08843184,0.0001612,53.2166,107.282,91.3936,268.724,6.2821e-05,7.12e-06,0.0,0 STARLINK-5443,1 54781U 22175Z   24060.54632865  .00000712  00000-0  62821-4 0  9996,2 54781  53.2166 107.2820 0001612  91.3936 268.7240 15.08843184 68545,6917.871,95.437,540.851,538.62,0.0
54781.0,STARLINK-5443,PAYLOAD,2024-02-29 19:28:15,15.08842294,0.0001579,53.2162,106.0923,88.8683,271.249,-2.2397e-05,-6.44e-06,0.0,0 STARLINK-5443,1 54781U 22175Z   24060.81129030 -.00000644  00000-0 -22397-4 0  9991,2 54781  53.2162 106.0923 0001579  88.8683 271.2490 15.08842294 68585,6917.873,95.437,540.831,538.646,0.0
54781.0,STARLINK-5443,PAYLOAD,2024-03-01 01:49:48,15.08833977,0.0001624,53.2166,104.9037,92.2452,267.8726,2.1139e-05,4.8e-07,0.0,0 STARLINK-5443,1 54781U 22175Z   24061.07625529  .00000048  00000-0  21139-4 0  9993,2 54781  53.2166 104.9037 0001624  92.2452 267.8726 15.08833977 66462,6917.899,95.438,540.887,538.64,0.0
54781.0,STARLINK-5443,PAYLOAD,2024-03-01 09:46:43,15.08838532,0.0001572,53.217,103.4189,92.3125,267.8047,5.1154e-05,5.26e-06,0.0,0 STARLINK-5443,1 54781U 22175Z   24061.40745230  .00000526  00000-0  51154-4 0  9993,2 54781  53.2170 103.4189 0001572  92.3125 267.8047 15.08838532 68672,6917.885,95.438,540.837,538.662,0.0
54781.0,STARLINK-5443,PAYLOAD,2024-03-01 19:19:02,15.08840504,0.0001545,53.2169,101.6348,91.7275,268.3894,1.1863e-05,-9.9e-07,0.0,0 STARLINK-5443,1 54781U 22175Z   24061.80489209 -.00000099  00000-0  11863-4 0  9997,2 54781  53.2169 101.6348 0001545  91.7275 268.3894 15.08840504 68731,6917.879,95.438,540.813,538.675,0.0
54781.0,STARLINK-5443,PAYLOAD,2024-03-02 09:37:30,15.08844821,0.0001535,53.2166,98.9583,94.4905,265.6263,0.00011737,1.581e-05,0.0,0 STARLINK-5443,1 54781U 22175Z   24062.40104752  .00001581  00000-0  11737-3 0  9996,2 54781  53.2166  98.9583 0001535  94.4905 265.6263 15.08844821 68822,6917.866,95.437,540.793,538.669,0.0
54781.0,STARLINK-5443,PAYLOAD,2024-03-03 01:31:22,15.08828303,0.0001469,53.2161,95.9848,99.5391,260.5767,0.00019408,2.801e-05,0.0,0 STARLINK-5443,1 54781U 22175Z   24063.06345777  .00002801  00000-0  19408-3 0  9992,2 54781  53.2161  95.9848 0001469  99.5391 260.5767 15.08828303 66760,6917.916,95.438,540.797,538.765,0.0
54781.0,STARLINK-5443,PAYLOAD,2024-03-03 09:28:18,15.08837927,0.0001412,53.2164,94.4959,87.4429,272.6724,3.9868e-05,3.47e-06,0.0,0 STARLINK-5443,1 54781U 22175Z   24063.39465617  .00000347  00000-0  39868-4 0  9990,2 54781  53.2164  94.4959 0001412  87.4429 272.6724 15.08837927 68970,6917.887,95.438,540.729,538.775,0.0
54781.0,STARLINK-5443,PAYLOAD,2024-03-04 01:22:09,15.08842944,0.0001599,53.2172,91.5222,97.0723,263.0451,4.5004e-05,4.28e-06,0.0,0 STARLINK-5443,1 54781U 22175Z   24064.05705336  .00000428  00000-0  45004-4 0  9998,2 54781  53.2172  91.5222 0001599  97.0723 263.0451 15.08842944 66918,6917.871,95.437,540.843,538.63,0.0
54781.0,STARLINK-5443,PAYLOAD,2024-03-04 09:19:04,15.08844663,0.000161,53.2176,90.0367,88.5198,271.5978,7.0602e-05,8.36e-06,0.0,0 STARLINK-5443,1 54781U 22175Z   24064.38825164  .00000836  00000-0  70602-4 0  9991,2 54781  53.2176  90.0367 0001610  88.5198 271.5978 15.08844663 69125,6917.866,95.437,540.845,538.617,0.0
54781.0,STARLINK-5443,PAYLOAD,2024-03-04 18:51:23,15.08854421,0.0001507,53.2176,88.253,90.1116,270.0049,3.6115e-05,2.87e-06,0.0,0 STARLINK-5443,1 54781U 22175Z   24064.78568310  .00000287  00000-0  36115-4 0  9993,2 54781  53.2176  88.2530 0001507  90.1116 270.0049 15.08854421 67023,6917.836,95.437,540.744,538.659,0.0
54781.0,STARLINK-5443,PAYLOAD,2024-03-05 01:12:57,15.08819846,0.0001612,53.2177,87.063,87.8398,272.2779,-7.7003e-05,-1.513e-05,0.0,0 STARLINK-5443,1 54781U 22175Z   24065.05067079 -.00001513  00000-0 -77003-4 0  9996,2 54781  53.2177  87.0630 0001612  87.8398 272.2779 15.08819846 67064,6917.942,95.439,540.922,538.692,0.0
54781.0,STARLINK-5443,PAYLOAD,2024-03-05 10:45:16,15.08826613,0.0001778,53.2181,85.278,89.0476,271.072,-2.3631e-05,-6.64e-06,0.0,0 STARLINK-5443,1 54781U 22175Z   24065.44810937 -.00000664  00000-0 -23631-4 0  9992,2 54781  53.2181  85.2780 0001778  89.0476 271.0720 15.08826613 69288,6917.921,95.438,541.016,538.556,0.0
54781.0,STARLINK-5443,PAYLOAD,2024-03-05 18:42:11,15.08835429,0.0001676,53.2181,83.79,93.5834,266.5349,3.7308e-05,3.06e-06,0.0,0 STARLINK-5443,1 54781U 22175Z   24065.77930440  .00000306  00000-0  37308-4 0  9997,2 54781  53.2181  83.7900 0001676  93.5834 266.5349 15.08835429 67177,6917.894,95.438,540.919,538.6,0.0
54781.0,STARLINK-5443,PAYLOAD,2024-03-06 07:25:16,15.08845791,0.0001477,53.2161,81.4106,98.108,262.008,0.00015842,2.235e-05,0.0,0 STARLINK-5443,1 54781U 22175Z   24066.30921852  .00002235  00000-0  15842-3 0  9995,2 54781  53.2161  81.4106 0001477  98.1080 262.0080 15.08845791 67256,6917.863,95.437,540.749,538.706,0.0
